format  = 'OEF2.0'       ! file format
rectype = 'ML'           ! record type (1L/ML)
refsys  = ECLM J2000     ! default reference system
END_OF_HEADER
202930
! Equinoctial elements: a, e*sin(LP), e*cos(LP), tan(i/2)*sin(LN), tan(i/2)*cos(LN), mean long.
 EQU   2.7210215225425092E+00  -0.014537274030527   0.130104989571078   -0.009519008674546    0.038663602218724 296.4665322393324
 MJD     59000.000000000 TDT
 MAG  16.643  0.150
! Non-grav parameters: model used, actual number in use, dimension
 LSP   0  0    6
! RMS    1.68232E-08   5.88900E-08   8.22688E-08   5.34469E-08   7.56890E-08   7.13398E-06
! EIG   1.07579E-08   5.31009E-08   5.91864E-08   7.57356E-08   7.86169E-08   1.27486E-07
! WEA   0.08651  -0.02289  -0.24412  -0.03357  -0.02078  -0.96480
 COV   2.830210138102556E-16  3.543122024213312E-16 -2.603292682702056E-16
 COV  -4.992042214900484E-18 -1.052690180196314E-18 -7.873861865190710E-14
 COV   3.468027286557968E-15  6.878077752471183E-17  1.886511729787680E-17
 COV   6.689670038864485E-17  1.808279351538482E-14  6.768149177265766E-15
 COV   7.159243161286040E-17  1.248926483233068E-16  1.357728291186093E-13
 COV   2.856568560436748E-15  2.588049637167598E-16  2.529981071526617E-14
 COV   5.728829671236270E-15  1.056596023015451E-14  5.089368128905899E-11
 NOR   8.462990106959648E+15 -9.345934921051774E+14  6.961302078833404E+13
 NOR  -9.766026206616650E+13 -9.148695418092123E+12  1.329006055003970E+13
 NOR   3.921580648140324E+14 -8.566206317904612E+12  1.006265833999790E+13
 NOR  -2.128841368531985E+12 -1.566971456817283E+12  1.567202493495569E+14
 NOR  -7.910041612493922E+11 -2.702958007388599E+12 -3.063965034542373E+11
 NOR   3.541407046591562E+14 -1.551670529664669E+13 -3.253830675316872E+11
 NOR   1.754031538722264E+14 -3.488851624201696E+10  4.175326401599722E+10
